[{"OBJECT_NAME":"SALSAT","OBJECT_ID":"2020-068K","EPOCH":"2026-03-15T05:43:28.441632","MEAN_MOTION":15.28307413,"ECCENTRICITY":0.00080338,"INCLINATION":97.8857,"RA_OF_ASC_NODE":71.6917,"ARG_OF_PERICENTER":272.6742,"MEAN_ANOMALY":87.3577,"EPHEMERIS_TYPE":0,"CLASSIFICATION_TYPE":"U","NORAD_CAT_ID":46495,"ELEMENT_SET_NO":999,"REV_AT_EPOCH":30100,"BSTAR":0.00037867351,"MEAN_MOTION_DOT":0.00010372,"MEAN_MOTION_DDOT":0},{"OBJECT_NAME":"XW-3 (CAS-9)","OBJECT_ID":"2021-131B","EPOCH":"2026-03-15T06:23:20.912928","MEAN_MOTION":14.41258618,"ECCENTRICITY":0.00046327,"INCLINATION":98.4952,"RA_OF_ASC_NODE":167.1888,"ARG_OF_PERICENTER":35.2857,"MEAN_ANOMALY":324.8638,"EPHEMERIS_TYPE":0,"CLASSIFICATION_TYPE":"U","NORAD_CAT_ID":50466,"ELEMENT_SET_NO":999,"REV_AT_EPOCH":22158,"BSTAR":0.00018074639,"MEAN_MOTION_DOT":5.4e-6,"MEAN_MOTION_DDOT":0},{"OBJECT_NAME":"GREENCUBE (IO-117)","OBJECT_ID":"2022-080E","EPOCH":"2026-03-14T17:06:42.520032","MEAN_MOTION":6.42583118,"ECCENTRICITY":0.00089903,"INCLINATION":70.1599,"RA_OF_ASC_NODE":331.1096,"ARG_OF_PERICENTER":310.7848,"MEAN_ANOMALY":49.2032,"EPHEMERIS_TYPE":0,"CLASSIFICATION_TYPE":"U","NORAD_CAT_ID":53109,"ELEMENT_SET_NO":999,"REV_AT_EPOCH":8599,"BSTAR":0,"MEAN_MOTION_DOT":-3.0e-8,"MEAN_MOTION_DDOT":0},{"OBJECT_NAME":"UMKA 1 (RS40S)","OBJECT_ID":"2023-091G","EPOCH":"2026-03-15T07:13:11.271360","MEAN_MOTION":15.19689977,"ECCENTRICITY":0.00146552,"INCLINATION":97.5173,"RA_OF_ASC_NODE":133.3843,"ARG_OF_PERICENTER":88.663,"MEAN_ANOMALY":271.6284,"EPHEMERIS_TYPE":0,"CLASSIFICATION_TYPE":"U","NORAD_CAT_ID":57172,"ELEMENT_SET_NO":999,"REV_AT_EPOCH":14974,"BSTAR":0.00038966277,"MEAN_MOTION_DOT":8.274e-5,"MEAN_MOTION_DDOT":0},{"OBJECT_NAME":"CUBESX-HSE 3 (RS42S)","OBJECT_ID":"2023-091N","EPOCH":"2026-03-15T07:46:34.306752","MEAN_MOTION":15.28792745,"ECCENTRICITY":0.0012439,"INCLINATION":97.5202,"RA_OF_ASC_NODE":138.8519,"ARG_OF_PERICENTER":69.5644,"MEAN_ANOMALY":290.693,"EPHEMERIS_TYPE":0,"CLASSIFICATION_TYPE":"U","NORAD_CAT_ID":57178,"ELEMENT_SET_NO":999,"REV_AT_EPOCH":15007,"BSTAR":0.00059502839,"MEAN_MOTION_DOT":0.00016631,"MEAN_MOTION_DDOT":0},{"OBJECT_NAME":"MONITOR-3 (RS58S)","OBJECT_ID":"2023-091Q","EPOCH":"2026-03-15T06:53:21.118272","MEAN_MOTION":15.25892822,"ECCENTRICITY":0.00135141,"INCLINATION":97.5197,"RA_OF_ASC_NODE":137.1333,"ARG_OF_PERICENTER":74.4435,"MEAN_ANOMALY":285.8294,"EPHEMERIS_TYPE":0,"CLASSIFICATION_TYPE":"U","NORAD_CAT_ID":57180,"ELEMENT_SET_NO":999,"REV_AT_EPOCH":14996,"BSTAR":0.00050634617,"MEAN_MOTION_DOT":0.00012947,"MEAN_MOTION_DDOT":0},{"OBJECT_NAME":"MONITOR-4 (RS57S)","OBJECT_ID":"2023-091S","EPOCH":"2026-03-15T06:31:28.664256","MEAN_MOTION":15.25979844,"ECCENTRICITY":0.00134687,"INCLINATION":97.5191,"RA_OF_ASC_NODE":137.0832,"ARG_OF_PERICENTER":74.9429,"MEAN_ANOMALY":285.3298,"EPHEMERIS_TYPE":0,"CLASSIFICATION_TYPE":"U","NORAD_CAT_ID":57182,"ELEMENT_SET_NO":999,"REV_AT_EPOCH":14996,"BSTAR":0.00052858797,"MEAN_MOTION_DOT":0.00013555,"MEAN_MOTION_DDOT":0},{"OBJECT_NAME":"MONITOR-2 (RS39S)","OBJECT_ID":"2023-091U","EPOCH":"2026-03-15T06:37:58.474272","MEAN_MOTION":15.17989612,"ECCENTRICITY":0.00130036,"INCLINATION":97.5197,"RA_OF_ASC_NODE":133.1762,"ARG_OF_PERICENTER":81.8379,"MEAN_ANOMALY":278.4329,"EPHEMERIS_TYPE":0,"CLASSIFICATION_TYPE":"U","NORAD_CAT_ID":57184,"ELEMENT_SET_NO":999,"REV_AT_EPOCH":14970,"BSTAR":0.00030521003,"MEAN_MOTION_DOT":6.149e-5,"MEAN_MOTION_DDOT":0},{"OBJECT_NAME":"SVYATOBOR 1 (RS60S)","OBJECT_ID":"2023-091X","EPOCH":"2026-03-15T06:40:11.628768","MEAN_MOTION":15.24944558,"ECCENTRICITY":0.00109633,"INCLINATION":97.5202,"RA_OF_ASC_NODE":137.6446,"ARG_OF_PERICENTER":68.1404,"MEAN_ANOMALY":292.0998,"EPHEMERIS_TYPE":0,"CLASSIFICATION_TYPE":"U","NORAD_CAT_ID":57187,"ELEMENT_SET_NO":999,"REV_AT_EPOCH":14999,"BSTAR":0.00045526501,"MEAN_MOTION_DOT":0.00011294,"MEAN_MOTION_DDOT":0},{"OBJECT_NAME":"VIZARD-METEO (RS38S)","OBJECT_ID":"2023-091Z","EPOCH":"2026-03-15T07:29:17.676960","MEAN_MOTION":15.32983902,"ECCENTRICITY":0.000842,"INCLINATION":97.5192,"RA_OF_ASC_NODE":142.0933,"ARG_OF_PERICENTER":55.3241,"MEAN_ANOMALY":304.8794,"EPHEMERIS_TYPE":0,"CLASSIFICATION_TYPE":"U","NORAD_CAT_ID":57189,"ELEMENT_SET_NO":999,"REV_AT_EPOCH":15029,"BSTAR":0.0005811633,"MEAN_MOTION_DOT":0.00018479,"MEAN_MOTION_DDOT":0},{"OBJECT_NAME":"NANOZOND 1 (RS49S)","OBJECT_ID":"2023-091AA","EPOCH":"2026-03-15T06:27:32.807808","MEAN_MOTION":15.77351754,"ECCENTRICITY":0.00022823,"INCLINATION":97.5058,"RA_OF_ASC_NODE":154.9745,"ARG_OF_PERICENTER":289.4604,"MEAN_ANOMALY":70.6415,"EPHEMERIS_TYPE":0,"CLASSIFICATION_TYPE":"U","NORAD_CAT_ID":57190,"ELEMENT_SET_NO":999,"REV_AT_EPOCH":15115,"BSTAR":0.001384727,"MEAN_MOTION_DOT":0.00233163,"MEAN_MOTION_DDOT":0},{"OBJECT_NAME":"POLYTECH-UNIVERSE 3 (RS46S)","OBJECT_ID":"2023-091AB","EPOCH":"2026-03-15T07:34:36.480000","MEAN_MOTION":15.18175924,"ECCENTRICITY":0.00173828,"INCLINATION":97.5171,"RA_OF_ASC_NODE":132.7219,"ARG_OF_PERICENTER":96.4266,"MEAN_ANOMALY":263.8947,"EPHEMERIS_TYPE":0,"CLASSIFICATION_TYPE":"U","NORAD_CAT_ID":57191,"ELEMENT_SET_NO":999,"REV_AT_EPOCH":14970,"BSTAR":0.00035282719,"MEAN_MOTION_DOT":7.171e-5,"MEAN_MOTION_DDOT":0},{"OBJECT_NAME":"UTMN 2 (RS27S)","OBJECT_ID":"2023-091AP","EPOCH":"2026-03-15T06:19:38.476128","MEAN_MOTION":15.29670059,"ECCENTRICITY":0.00093904,"INCLINATION":97.5193,"RA_OF_ASC_NODE":140.3085,"ARG_OF_PERICENTER":59.7262,"MEAN_ANOMALY":300.4906,"EPHEMERIS_TYPE":0,"CLASSIFICATION_TYPE":"U","NORAD_CAT_ID":57203,"ELEMENT_SET_NO":999,"REV_AT_EPOCH":15017,"BSTAR":0.00060618344,"MEAN_MOTION_DOT":0.00017392,"MEAN_MOTION_DDOT":0},{"OBJECT_NAME":"KUZGTU 1 (RS47S)","OBJECT_ID":"2023-091AV","EPOCH":"2026-03-15T07:17:46.557312","MEAN_MOTION":15.27647053,"ECCENTRICITY":0.00127064,"INCLINATION":97.5178,"RA_OF_ASC_NODE":137.9376,"ARG_OF_PERICENTER":72.5231,"MEAN_ANOMALY":287.7396,"EPHEMERIS_TYPE":0,"CLASSIFICATION_TYPE":"U","NORAD_CAT_ID":57217,"ELEMENT_SET_NO":999,"REV_AT_EPOCH":15003,"BSTAR":0.00055819664,"MEAN_MOTION_DOT":0.00015059,"MEAN_MOTION_DDOT":0},{"OBJECT_NAME":"SONATE-2","OBJECT_ID":"2024-043Q","EPOCH":"2026-03-15T03:23:23.010720","MEAN_MOTION":15.51822579,"ECCENTRICITY":0.00079258,"INCLINATION":97.5394,"RA_OF_ASC_NODE":219.335,"ARG_OF_PERICENTER":184.6236,"MEAN_ANOMALY":175.4944,"EPHEMERIS_TYPE":0,"CLASSIFICATION_TYPE":"U","NORAD_CAT_ID":59112,"ELEMENT_SET_NO":999,"REV_AT_EPOCH":11327,"BSTAR":0.00073684603,"MEAN_MOTION_DOT":0.00044182,"MEAN_MOTION_DDOT":0},{"OBJECT_NAME":"MESAT1","OBJECT_ID":"2024-125G","EPOCH":"2026-03-14T20:27:01.417536","MEAN_MOTION":15.54126021,"ECCENTRICITY":0.00115861,"INCLINATION":97.2453,"RA_OF_ASC_NODE":289.7538,"ARG_OF_PERICENTER":200.9026,"MEAN_ANOMALY":159.1756,"EPHEMERIS_TYPE":0,"CLASSIFICATION_TYPE":"U","NORAD_CAT_ID":60209,"ELEMENT_SET_NO":999,"REV_AT_EPOCH":9487,"BSTAR":0.0008659071,"MEAN_MOTION_DOT":0.00056603,"MEAN_MOTION_DDOT":0}]
