SALSAT                  
1 46495U 20068K   26074.23852363  .00010372  00000+0  37867-3 0  9991
2 46495  97.8857  71.6917 0008033 272.6742  87.3577 15.28307413301004
XW-3 (CAS-9)            
1 50466U 21131B   26074.26621427  .00000540  00000+0  18075-3 0  9990
2 50466  98.4952 167.1888 0004632  35.2857 324.8638 14.41258618221586
GREENCUBE (IO-117)      
1 53109U 22080E   26073.71299213 -.00000003  00000+0  00000+0 0  9994
2 53109  70.1599 331.1096 0008990 310.7848  49.2032  6.42583118 85990
UMKA 1 (RS40S)          
1 57172U 23091G   26074.30082490  .00008274  00000+0  38966-3 0  9997
2 57172  97.5173 133.3843 0014655  88.6630 271.6284 15.19689977149740
CUBESX-HSE 3 (RS42S)    
1 57178U 23091N   26074.32400818  .00016631  00000+0  59503-3 0  9999
2 57178  97.5202 138.8519 0012439  69.5644 290.6930 15.28792745150075
MONITOR-3 (RS58S)       
1 57180U 23091Q   26074.28704998  .00012947  00000+0  50635-3 0  9996
2 57180  97.5197 137.1333 0013514  74.4435 285.8294 15.25892822149964
MONITOR-4 (RS57S)       
1 57182U 23091S   26074.27185954  .00013555  00000+0  52859-3 0  9998
2 57182  97.5191 137.0832 0013468  74.9429 285.3298 15.25979844149968
MONITOR-2 (RS39S)       
1 57184U 23091U   26074.27637123  .00006149  00000+0  30521-3 0  9993
2 57184  97.5197 133.1762 0013003  81.8379 278.4329 15.17989612149706
SVYATOBOR 1 (RS60S)     
1 57187U 23091X   26074.27791237  .00011294  00000+0  45527-3 0  9992
2 57187  97.5202 137.6446 0010963  68.1404 292.0998 15.24944558149996
VIZARD-METEO (RS38S)    
1 57189U 23091Z   26074.31201015  .00018479  00000+0  58116-3 0  9999
2 57189  97.5192 142.0933 0008420  55.3241 304.8794 15.32983902150295
NANOZOND 1 (RS49S)      
1 57190U 23091AA  26074.26912972  .00233163  00000+0  13847-2 0  9996
2 57190  97.5058 154.9745 0002282 289.4604  70.6415 15.77351754151151
POLYTECH-UNIVERSE 3 (R*)
1 57191U 23091AB  26074.31570000  .00007171  00000+0  35283-3 0  9992
2 57191  97.5171 132.7219 0017382  96.4266 263.8947 15.18175924149707
UTMN 2 (RS27S)          
1 57203U 23091AP  26074.26363977  .00017392  00000+0  60618-3 0  9999
2 57203  97.5193 140.3085 0009390  59.7262 300.4906 15.29670059150176
KUZGTU 1 (RS47S)        
1 57217U 23091AV  26074.30401108  .00015059  00000+0  55820-3 0  9995
2 57217  97.5178 137.9376 0012706  72.5231 287.7396 15.27647053150034
SONATE-2                
1 59112U 24043Q   26074.14123855  .00044182  00000+0  73685-3 0  9999
2 59112  97.5394 219.3350 0007925 184.6236 175.4944 15.51822579113276
MESAT1                  
1 60209U 24125G   26073.85209974  .00056603  00000+0  86591-3 0  9994
2 60209  97.2453 289.7538 0011586 200.9026 159.1756 15.54126021 94870
